{
  "type": "FeatureCollection",
  "features": [
    {
      "type": "Feature",
      "properties": {
        "norad_id": 37846,
        "name": "GSAT0101 (GALILEO-PFM)",
        "group": "gnss",
        "lat": 56.896917435236894,
        "lon": 82.75723619357565,
        "alt_km": 23222.233940624737,
        "timestamp": "2025-12-10T16:57:11.877464+00:00",
        "meta_object_name": "GSAT0101 (GALILEO-PFM)",
        "meta_object_id": "2011-060A",
        "meta_epoch": "2025-12-08T19:04:30.018432",
        "meta_mean_motion": 1.70475601,
        "meta_eccentricity": 0.00029509,
        "meta_inclination": 57.0536,
        "meta_ra_of_asc_node": 346.9268,
        "meta_arg_of_pericenter": 313.0699,
        "meta_mean_anomaly": 46.9223,
        "meta_ephemeris_type": 0,
        "meta_classification_type": "U",
        "meta_norad_cat_id": 37846,
        "meta_element_set_no": 999,
        "meta_rev_at_epoch": 8787,
        "meta_bstar": 0,
        "meta_mean_motion_dot": -8.7e-07,
        "meta_mean_motion_ddot": 0,
        "tle_line1": "1 37846U 11060A   25342.79479188 -.00000087  00000+0  00000+0 0  9999",
        "tle_line2": "2 37846  57.0536 346.9268 0002950 313.0699  46.9223  1.70475601 87878"
      },
      "geometry": {
        "type": "Point",
        "coordinates": [
          82.75723619357565,
          56.896917435236894
        ]
      }
    },
    {
      "type": "Feature",
      "properties": {
        "norad_id": 37847,
        "name": "GSAT0102 (GALILEO-FM2)",
        "group": "gnss",
        "lat": 33.655295329097335,
        "lon": 141.29359663778584,
        "alt_km": 23232.33630746826,
        "timestamp": "2025-12-10T16:57:11.877476+00:00",
        "meta_object_name": "GSAT0102 (GALILEO-FM2)",
        "meta_object_id": "2011-060B",
        "meta_epoch": "2025-12-10T12:23:27.701376",
        "meta_mean_motion": 1.70475849,
        "meta_eccentricity": 0.0004948,
        "meta_inclination": 57.054,
        "meta_ra_of_asc_node": 346.8806,
        "meta_arg_of_pericenter": 308.752,
        "meta_mean_anomaly": 73.2267,
        "meta_ephemeris_type": 0,
        "meta_classification_type": "U",
        "meta_norad_cat_id": 37847,
        "meta_element_set_no": 999,
        "meta_rev_at_epoch": 8791,
        "meta_bstar": 0,
        "meta_mean_motion_dot": -8.8e-07,
        "meta_mean_motion_ddot": 0,
        "tle_line1": "1 37847U 11060B   25344.51629284 -.00000088  00000+0  00000+0 0  9997",
        "tle_line2": "2 37847  57.0540 346.8806 0004948 308.7520  73.2267  1.70475849 87914"
      },
      "geometry": {
        "type": "Point",
        "coordinates": [
          141.29359663778584,
          33.655295329097335
        ]
      }
    },
    {
      "type": "Feature",
      "properties": {
        "norad_id": 37867,
        "name": "COSMOS 2476 (744)",
        "group": "gnss",
        "lat": -59.642775218162306,
        "lon": 27.091751589933136,
        "alt_km": 19100.81186917061,
        "timestamp": "2025-12-10T16:57:11.877489+00:00",
        "meta_object_name": "COSMOS 2476 (744)",
        "meta_object_id": "2011-064A",
        "meta_epoch": "2025-12-09T20:41:15.013248",
        "meta_mean_motion": 2.1310124,
        "meta_eccentricity": 0.00239101,
        "meta_inclination": 65.1608,
        "meta_ra_of_asc_node": 79.2687,
        "meta_arg_of_pericenter": 233.6391,
        "meta_mean_anomaly": 126.4016,
        "meta_ephemeris_type": 0,
        "meta_classification_type": "U",
        "meta_norad_cat_id": 37867,
        "meta_element_set_no": 999,
        "meta_rev_at_epoch": 10973,
        "meta_bstar": 0,
        "meta_mean_motion_dot": -1.7e-07,
        "meta_mean_motion_ddot": 0,
        "tle_line1": "1 37867U 11064A   25343.86197932 -.00000017  00000+0  00000+0 0  9992",
        "tle_line2": "2 37867  65.1608  79.2687 0023910 233.6391 126.4016  2.13101240109734"
      },
      "geometry": {
        "type": "Point",
        "coordinates": [
          27.091751589933136,
          -59.642775218162306
        ]
      }
    },
    {
      "type": "Feature",
      "properties": {
        "norad_id": 37868,
        "name": "COSMOS 2477 (745)",
        "group": "gnss",
        "lat": 59.354825476184956,
        "lon": -151.97414135820696,
        "alt_km": 19154.490959345196,
        "timestamp": "2025-12-10T16:57:11.877509+00:00",
        "meta_object_name": "COSMOS 2477 (745)",
        "meta_object_id": "2011-064B",
        "meta_epoch": "2025-12-09T06:11:12.657696",
        "meta_mean_motion": 2.13102656,
        "meta_eccentricity": 0.0021072,
        "meta_inclination": 65.167,
        "meta_ra_of_asc_node": 79.367,
        "meta_arg_of_pericenter": 234.1716,
        "meta_mean_anomaly": 203.2692,
        "meta_ephemeris_type": 0,
        "meta_classification_type": "U",
        "meta_norad_cat_id": 37868,
        "meta_element_set_no": 999,
        "meta_rev_at_epoch": 10971,
        "meta_bstar": 0,
        "meta_mean_motion_dot": -1.4e-07,
        "meta_mean_motion_ddot": 0,
        "tle_line1": "1 37868U 11064B   25343.25778539 -.00000014  00000+0  00000+0 0  9991",
        "tle_line2": "2 37868  65.1670  79.3670 0021072 234.1716 203.2692  2.13102656109715"
      },
      "geometry": {
        "type": "Point",
        "coordinates": [
          -151.97414135820696,
          59.354825476184956
        ]
      }
    },
    {
      "type": "Feature",
      "properties": {
        "norad_id": 37869,
        "name": "COSMOS 2475 (743)",
        "group": "gnss",
        "lat": 55.174245429911885,
        "lon": 120.9791641028649,
        "alt_km": 19190.17743223128,
        "timestamp": "2025-12-10T16:57:11.877521+00:00",
        "meta_object_name": "COSMOS 2475 (743)",
        "meta_object_id": "2011-064C",
        "meta_epoch": "2025-12-09T06:02:05.700768",
        "meta_mean_motion": 2.13101306,
        "meta_eccentricity": 0.0026081,
        "meta_inclination": 65.1742,
        "meta_ra_of_asc_node": 79.3871,
        "meta_arg_of_pericenter": 248.2695,
        "meta_mean_anomaly": 140.2782,
        "meta_ephemeris_type": 0,
        "meta_classification_type": "U",
        "meta_norad_cat_id": 37869,
        "meta_element_set_no": 999,
        "meta_rev_at_epoch": 10972,
        "meta_bstar": 0,
        "meta_mean_motion_dot": -1.3e-07,
        "meta_mean_motion_ddot": 0,
        "tle_line1": "1 37869U 11064C   25343.25145487 -.00000013  00000+0  00000+0 0  9991",
        "tle_line2": "2 37869  65.1742  79.3871 0026081 248.2695 140.2782  2.13101306109728"
      },
      "geometry": {
        "type": "Point",
        "coordinates": [
          120.9791641028649,
          55.174245429911885
        ]
      }
    },
    {
      "type": "Feature",
      "properties": {
        "norad_id": 37948,
        "name": "BEIDOU-2 IGSO-5 (C10)",
        "group": "gnss",
        "lat": 20.58785252171275,
        "lon": 74.13556540165531,
        "alt_km": 35617.946773827454,
        "timestamp": "2025-12-10T16:57:11.877533+00:00",
        "meta_object_name": "BEIDOU-2 IGSO-5 (C10)",
        "meta_object_id": "2011-073A",
        "meta_epoch": "2025-12-09T19:08:31.399296",
        "meta_mean_motion": 1.00291503,
        "meta_eccentricity": 0.01103013,
        "meta_inclination": 48.0257,
        "meta_ra_of_asc_node": 273.8934,
        "meta_arg_of_pericenter": 222.2261,
        "meta_mean_anomaly": 322.5967,
        "meta_ephemeris_type": 0,
        "meta_classification_type": "U",
        "meta_norad_cat_id": 37948,
        "meta_element_set_no": 999,
        "meta_rev_at_epoch": 5123,
        "meta_bstar": 0,
        "meta_mean_motion_dot": -2.09e-06,
        "meta_mean_motion_ddot": 0,
        "tle_line1": "1 37948U 11073A   25343.79758564 -.00000209  00000+0  00000+0 0  9991",
        "tle_line2": "2 37948  48.0257 273.8934 0110301 222.2261 322.5967  1.00291503 51234"
      },
      "geometry": {
        "type": "Point",
        "coordinates": [
          74.13556540165531,
          20.58785252171275
        ]
      }
    },
    {
      "type": "Feature",
      "properties": {
        "norad_id": 37951,
        "name": "LUCH 5A (SDCM/PRN 140)",
        "group": "gnss",
        "lat": 7.466691349798561,
        "lon": 140.7334065355408,
        "alt_km": 35794.51918175817,
        "timestamp": "2025-12-10T16:57:11.877546+00:00",
        "meta_object_name": "LUCH 5A (SDCM/PRN 140)",
        "meta_object_id": "2011-074B",
        "meta_epoch": "2025-12-10T05:50:44.018592",
        "meta_mean_motion": 1.00274445,
        "meta_eccentricity": 0.00056842,
        "meta_inclination": 8.2738,
        "meta_ra_of_asc_node": 76.6214,
        "meta_arg_of_pericenter": 179.2876,
        "meta_mean_anomaly": 78.0373,
        "meta_ephemeris_type": 0,
        "meta_classification_type": "U",
        "meta_norad_cat_id": 37951,
        "meta_element_set_no": 999,
        "meta_rev_at_epoch": 5115,
        "meta_bstar": 0,
        "meta_mean_motion_dot": -4.6e-07,
        "meta_mean_motion_ddot": 0,
        "tle_line1": "1 37951U 11074B   25344.24356503 -.00000046  00000+0  00000+0 0  9993",
        "tle_line2": "2 37951   8.2738  76.6214 0005684 179.2876  78.0373  1.00274445 51151"
      },
      "geometry": {
        "type": "Point",
        "coordinates": [
          140.7334065355408,
          7.466691349798561
        ]
      }
    }
  ]
}